NORAD_CAT_ID,OBJECT_NAME,OBJECT_TYPE,EPOCH,MEAN_MOTION,ECCENTRICITY,INCLINATION,RA_OF_ASC_NODE,ARG_OF_PERICENTER,MEAN_ANOMALY,BSTAR,MEAN_MOTION_DOT,MEAN_MOTION_DDOT,TLE_LINE0,TLE_LINE1,TLE_LINE2,SEMIMAJOR_AXIS,PERIOD,APOGEE,PERIGEE,DECAYED
55943.0,STARLINK-5932,PAYLOAD,2023-05-16 22:26:15,15.69910502,0.0002915,70.0018,11.9055,256.288,103.7991,-1.2531e-07,-2.27e-06,0.0,0 STARLINK-5932,1 55943U 23037AF  23136.93490156 -.00000227  00000-0 -12531-6 0  9994,2 55943  70.0018  11.9055 0002915 256.2880 103.7991 15.69910502  9976,6737.29,91.725,361.119,357.191,0.0
55943.0,STARLINK-5932,PAYLOAD,2023-05-17 16:47:15,15.69941221,0.0003297,70.0014,9.7562,254.2505,105.8327,4.7377e-05,5.492e-05,0.0,0 STARLINK-5932,1 55943U 23037AF  23137.69948518  .00005492  00000-0  47377-4 0  9999,2 55943  70.0014   9.7562 0003297 254.2505 105.8327 15.69941221 10099,6737.202,91.723,361.288,356.846,0.0
55943.0,STARLINK-5932,PAYLOAD,2023-05-18 00:26:01,15.6993115,0.0003846,70.0001,8.8612,259.8929,100.1833,1.8989e-05,2.072e-05,0.0,0 STARLINK-5932,1 55943U 23037AF  23138.01807141  .00002072  00000-0  18989-4 0  9990,2 55943  70.0001   8.8612 0003846 259.8929 100.1833 15.69931150 10148,6737.231,91.724,361.687,356.505,0.0
55943.0,STARLINK-5932,PAYLOAD,2023-05-18 14:11:48,15.69919964,0.0003721,69.9996,7.2488,261.7513,98.3261,1.4667e-05,1.551e-05,0.0,0 STARLINK-5932,1 55943U 23037AF  23138.59152778  .00001551  00000-0  14667-4 0  9992,2 55943  69.9996   7.2488 0003721 261.7513  98.3261 15.69919964 10237,6737.263,91.724,361.635,356.621,0.0
55943.0,STARLINK-5932,PAYLOAD,2023-05-19 00:54:03,15.69924383,0.0003988,69.998,5.9952,249.8143,110.2624,2.3869e-05,2.658e-05,0.0,0 STARLINK-5932,1 55943U 23037AF  23139.03753962  .00002658  00000-0  23869-4 0  9997,2 55943  69.9980   5.9952 0003988 249.8143 110.2624 15.69924383 10308,6737.25,91.724,361.802,356.429,0.0
55943.0,STARLINK-5932,PAYLOAD,2023-05-19 19:15:05,15.69919186,0.0003203,69.9993,3.8414,264.903,95.1801,3.9762e-06,2.65e-06,0.0,0 STARLINK-5932,1 55943U 23037AF  23139.80214723  .00000265  00000-0  39762-5 0  9991,2 55943  69.9993   3.8414 0003203 264.9030  95.1801 15.69919186 10083,6737.265,91.724,361.288,356.972,0.0
55943.0,STARLINK-5932,PAYLOAD,2023-05-20 01:22:05,15.69929884,0.0003508,69.998,3.1295,273.3547,86.7248,1.3833e-05,1.451e-05,0.0,0 STARLINK-5932,1 55943U 23037AF  23140.05700653  .00001451  00000-0  13833-4 0  9990,2 55943  69.9980   3.1295 0003508 273.3547  86.7248 15.69929884 10463,6737.235,91.724,361.463,356.736,0.0
55943.0,STARLINK-5932,PAYLOAD,2023-05-20 18:11:21,15.69921896,0.0003017,69.9992,1.1558,265.814,94.2711,-2.6321e-06,-5.29e-06,0.0,0 STARLINK-5932,1 55943U 23037AF  23140.75789339 -.00000529  00000-0 -26321-5 0  9999,2 55943  69.9992   1.1558 0003017 265.8140  94.2711 15.69921896 10572,6737.257,91.724,361.155,357.09,0.0
55943.0,STARLINK-5932,PAYLOAD,2023-05-20 21:14:51,15.69927615,0.0003742,69.9981,0.7989,268.8286,91.2481,4.038e-06,2.73e-06,0.0,0 STARLINK-5932,1 55943U 23037AF  23140.88532068  .00000273  00000-0  40380-5 0  9993,2 55943  69.9981   0.7989 0003742 268.8286  91.2481 15.69927615 10253,6737.241,91.724,361.627,356.585,0.0
55943.0,STARLINK-5932,PAYLOAD,2023-05-21 00:18:24,15.69891991,0.0002989,69.9994,0.4389,279.016,81.0697,-3.5635e-05,-4.489e-05,0.0,0 STARLINK-5932,1 55943U 23037AF  23141.01278619 -.00004489  00000-0 -35635-4 0  9999,2 55943  69.9994   0.4389 0002989 279.0160  81.0697 15.69891991 10618,6737.343,91.726,361.222,357.194,0.0
55943.0,STARLINK-5932,PAYLOAD,2023-05-21 15:35:54,15.69914373,0.0003617,69.9982,358.6497,278.2656,81.8129,-1.1978e-05,-1.652e-05,0.0,0 STARLINK-5932,1 55943U 23037AF  23141.64993888 -.00001652  00000-0 -11978-4 0  9993,2 55943  69.9982 358.6497 0003617 278.2656  81.8129 15.69914373 10712,6737.279,91.725,361.581,356.707,0.0
55943.0,STARLINK-5932,PAYLOAD,2023-05-21 18:39:23,15.69937498,0.0003785,69.998,358.2917,277.0842,82.9923,1.558e-05,1.662e-05,0.0,0 STARLINK-5932,1 55943U 23037AF  23141.77735423  .00001662  00000-0  15580-4 0  9998,2 55943  69.9980 358.2917 0003785 277.0842  82.9923 15.69937498 10394,6737.213,91.723,361.628,356.528,0.0
55943.0,STARLINK-5932,PAYLOAD,2023-05-22 00:46:23,15.6993792,0.0003796,69.9976,357.5747,271.2175,88.8586,1.6076e-05,1.722e-05,0.0,0 STARLINK-5932,1 55943U 23037AF  23142.03221865  .00001722  00000-0  16076-4 0  9996,2 55943  69.9976 357.5747 0003796 271.2175  88.8586 15.69937920 10771,6737.212,91.723,361.634,356.519,0.0
55943.0,STARLINK-5932,PAYLOAD,2023-05-22 16:03:55,15.6992086,0.0003658,69.9976,355.7827,271.7239,88.3538,8.0232e-06,7.52e-06,0.0,0 STARLINK-5932,1 55943U 23037AF  23142.66939490  .00000752  00000-0  80232-5 0  9993,2 55943  69.9976 355.7827 0003658 271.7239  88.3538 15.69920860 10871,6737.26,91.724,361.59,356.661,0.0
55943.0,STARLINK-5932,PAYLOAD,2023-05-22 19:07:26,15.69919709,0.0003691,69.9976,355.4244,271.1491,88.9282,5.3055e-06,4.25e-06,0.0,0 STARLINK-5932,1 55943U 23037AF  23142.79682951  .00000425  00000-0  53055-5 0  9994,2 55943  69.9976 355.4244 0003691 271.1491  88.9282 15.69919709 10559,6737.264,91.724,361.615,356.642,0.0
55943.0,STARLINK-5932,PAYLOAD,2023-05-23 16:31:57,15.69929533,0.0003682,69.9975,352.9162,270.4078,89.6695,-4.6689e-06,-7.75e-06,0.0,0 STARLINK-5932,1 55943U 23037AF  23143.68886293 -.00000775  00000-0 -46689-5 0  9993,2 55943  69.9975 352.9162 0003682 270.4078  89.6695 15.69929533 11038,6737.236,91.724,361.581,356.62,0.0
55943.0,STARLINK-5932,PAYLOAD,2023-05-24 15:28:14,15.6991114,0.0003444,69.9971,350.2276,268.8032,91.2769,2.1144e-05,2.329e-05,0.0,0 STARLINK-5932,1 55943U 23037AF  23144.64461592  .00002329  00000-0  21144-4 0  9994,2 55943  69.9971 350.2276 0003444 268.8032  91.2769 15.69911140 11180,6737.288,91.725,361.474,356.833,0.0
55943.0,STARLINK-5932,PAYLOAD,2023-05-25 14:24:31,15.69919989,0.0003666,69.9962,347.5417,262.8944,97.1835,4.5519e-06,3.34e-06,0.0,0 STARLINK-5932,1 55943U 23037AF  23145.60036627  .00000334  00000-0  45519-5 0  9995,2 55943  69.9962 347.5417 0003666 262.8944  97.1835 15.69919989 10994,6737.263,91.724,361.598,356.658,0.0
55943.0,STARLINK-5932,PAYLOAD,2023-05-25 15:56:16,15.69922243,0.00037,69.997,347.3625,264.6771,95.4003,6.7943e-06,6.04e-06,0.0,0 STARLINK-5932,1 55943U 23037AF  23145.66408144  .00000604  00000-0  67943-5 0  9993,2 55943  69.9970 347.3625 0003700 264.6771  95.4003 15.69922243 11344,6737.256,91.724,361.614,356.629,0.0
55943.0,STARLINK-5932,PAYLOAD,2023-05-25 22:03:16,15.69930793,0.0003334,69.997,346.645,267.1221,92.9593,1.3115e-05,1.365e-05,0.0,0 STARLINK-5932,1 55943U 23037AF  23145.91894088  .00001365  00000-0  13115-4 0  9993,2 55943  69.9970 346.6450 0003334 267.1221  92.9593 15.69930793 11045,6737.232,91.724,361.343,356.851,0.0
55943.0,STARLINK-5932,PAYLOAD,2023-05-25 23:35:02,15.69910522,0.0003776,69.9977,346.4664,266.558,93.5183,-9.8529e-06,-1.397e-05,0.0,0 STARLINK-5932,1 55943U 23037AF  23145.98267352 -.00001397  00000-0 -98529-5 0  9998,2 55943  69.9977 346.4664 0003776 266.5580  93.5183 15.69910522 11396,6737.29,91.725,361.699,356.611,0.0
55943.0,STARLINK-5932,PAYLOAD,2023-05-26 16:24:18,15.69920982,0.0003758,69.9968,344.495,273.3807,86.6959,-4.3667e-06,-7.38e-06,0.0,0 STARLINK-5932,1 55943U 23037AF  23146.68355316 -.00000738  00000-0 -43667-5 0  9995,2 55943  69.9968 344.4950 0003758 273.3807  86.6959 15.69920982 11508,6737.26,91.724,361.657,356.593,0.0
55943.0,STARLINK-5932,PAYLOAD,2023-05-26 20:59:34,15.69926284,0.0003548,69.9972,343.9587,274.8543,85.2247,-7.9601e-07,-3.09e-06,0.0,0 STARLINK-5932,1 55943U 23037AF  23146.87469976 -.00000309  00000-0 -79601-6 0  9996,2 55943  69.9972 343.9587 0003548 274.8543  85.2247 15.69926284 11194,6737.245,91.724,361.5,356.72,0.0
55943.0,STARLINK-5932,PAYLOAD,2023-05-27 21:27:36,15.69925902,0.0003607,69.9973,341.0921,273.5968,86.4815,-1.0775e-06,-3.43e-06,0.0,0 STARLINK-5932,1 55943U 23037AF  23147.89416746 -.00000343  00000-0 -10775-5 0  9990,2 55943  69.9973 341.0921 0003607 273.5968  86.4815 15.69925902 11357,6737.246,91.724,361.541,356.681,0.0
55943.0,STARLINK-5932,PAYLOAD,2023-05-27 22:59:21,15.69924477,0.0003454,69.9972,340.9128,271.1179,88.9621,-4.137e-07,-2.63e-06,0.0,0 STARLINK-5932,1 55943U 23037AF  23147.95788493 -.00000263  00000-0 -41370-6 0  9995,2 55943  69.9972 340.9128 0003454 271.1179  88.9621 15.69924477 11708,6737.25,91.724,361.442,356.788,0.0
55943.0,STARLINK-5932,PAYLOAD,2023-05-28 20:23:52,15.69932641,0.0003479,69.9972,338.4046,271.1018,88.9779,7.8732e-06,7.34e-06,0.0,0 STARLINK-5932,1 55943U 23037AF  23148.84991154  .00000734  00000-0  78732-5 0  9996,2 55943  69.9972 338.4046 0003479 271.1018  88.9779 15.69932641 11502,6737.227,91.724,361.436,356.748,0.0
55943.0,STARLINK-5932,PAYLOAD,2023-05-28 21:55:37,15.69930836,0.0003482,69.997,338.2252,266.3761,93.7037,4.7349e-06,3.57e-06,0.0,0 STARLINK-5932,1 55943U 23037AF  23148.91362936  .00000357  00000-0  47349-5 0  9995,2 55943  69.9970 338.2252 0003482 266.3761  93.7037 15.69930836 11855,6737.232,91.724,361.443,356.751,0.0
55943.0,STARLINK-5932,PAYLOAD,2023-05-29 05:34:24,15.69908826,0.0003428,69.9974,337.3301,272.6893,87.391,-7.2602e-06,-1.085e-05,0.0,0 STARLINK-5932,1 55943U 23037AF  23149.23223064 -.00001085  00000-0 -72602-5 0  9990,2 55943  69.9974 337.3301 0003428 272.6893  87.3910 15.69908826 11909,6737.295,91.725,361.469,356.85,0.0
55943.0,STARLINK-5932,PAYLOAD,2023-05-29 14:44:54,15.69920052,0.0003508,69.997,336.2547,275.2158,84.8638,2.6139e-06,1.01e-06,0.0,0 STARLINK-5932,1 55943U 23037AF  23149.61452377  .00000101  00000-0  26139-5 0  9993,2 55943  69.9970 336.2547 0003508 275.2158  84.8638 15.69920052 11620,6737.263,91.724,361.491,356.764,0.0
55943.0,STARLINK-5932,PAYLOAD,2023-05-29 16:16:39,15.699202,0.0003576,69.9975,336.076,273.194,86.8846,3.6156e-06,2.22e-06,0.0,0 STARLINK-5932,1 55943U 23037AF  23149.67824016  .00000222  00000-0  36156-5 0  9996,2 55943  69.9975 336.0760 0003576 273.1940  86.8846 15.69920200 11977,6737.262,91.724,361.537,356.718,0.0
